GLOBALSTAR M035         
1 25851U 99037A   25012.57533306 -.00000069  00000+0 -21889-3 0  9998
2 25851  51.9971  41.9939 0013811  91.3049  52.1704 11.04535715 79063
GLOBALSTAR M032         
1 25852U 99037B   25012.28358566 -.00000054  00000+0  42243-3 0  9990
2 25852  51.9922 238.5996 0009903 267.8360  92.1305 11.19055451117334
GLOBALSTAR M051         
1 25853U 99037C   25012.45707444 -.00000058  00000+0  34646-3 0  9995
2 25853  51.9809  56.5717 0000683 267.7999  92.2733 11.42200110114592
GLOBALSTAR M030         
1 25854U 99037D   25012.58098906 -.00000031  00000+0  93347-3 0  9990
2 25854  51.9846 232.2740 0004497 118.4017 241.7253 11.55103456132062
GLOBALSTAR M048         
1 25872U 99041A   25012.36889464 -.00000068  00000+0  59323-4 0  9995
2 25872  51.9401 345.7947 0013153 276.2181 254.0901 11.33853211107305
GLOBALSTAR M026         
1 25873U 99041B   25012.55080747 -.00000145  00000+0 -29775-2 0  9997
2 25873  51.9981 161.6439 0001561  40.2307  50.5565 11.06825834131255
GLOBALSTAR M043         
1 25874U 99041C   25012.53653293 -.00000041  00000+0  80941-3 0  9995
2 25874  51.9409  86.8379 0013236  50.2194  90.0586 11.25690027105347
GLOBALSTAR M028         
1 25875U 99041D   25012.46049006 -.00000062  00000+0  25280-3 0  9997
2 25875  51.9634 297.4144 0063847  92.8662 267.9508 12.50574339170698
